start=new Date('2022-12-13T00:00:00.000Z').valueOf();
sats=[{"CLASSIFICATION_TYPE":"U","GP_ID":"220207193","APOAPSIS":"548.612","OBJECT_TYPE":"PAYLOAD","EPOCH":"2022-12-12T20:03:13.182336","TLE_LINE1":"1 47762U 21017AS  22346.83556924 -.00013919  00000-0 -92036-3 0  9994","DECAY_DATE":null,"MEAN_ELEMENT_THEORY":"SGP4","LAUNCH_DATE":"2021-03-04","OBJECT_NAME":"STARLINK-2180","NORAD_CAT_ID":"47762","FILE":"3695286","SITE":"AFETR","RCS_SIZE":"LARGE","EPHEMERIS_TYPE":"0","OBJECT_ID":"2021-017AS","RA_OF_ASC_NODE":"136.6910","ECCENTRICITY":"0.00014910","REV_AT_EPOCH":"9925","SEMIMAJOR_AXIS":"6925.715","COUNTRY_CODE":"US","MEAN_MOTION_DOT":"-0.00013919","PERIOD":"95.600","MEAN_ANOMALY":"234.7292","ARG_OF_PERICENTER":"125.3836","PERIAPSIS":"546.547","INCLINATION":"53.0546","MEAN_MOTION":"15.06280506","ELEMENT_SET_NO":"999","CENTER_NAME":"EARTH","TLE_LINE2":"2 47762  53.0546 136.6910 0001491 125.3836 234.7292 15.06280506 99257","REF_FRAME":"TEME","BSTAR":"-0.00092036000000","MEAN_MOTION_DDOT":"0.0000000000000","TIME_SYSTEM":"UTC"},{"REF_FRAME":"TEME","BSTAR":"-0.00011685000000","MEAN_MOTION_DDOT":"0.0000000000000","TIME_SYSTEM":"UTC","MEAN_MOTION":"15.06407702","INCLINATION":"53.0535","PERIAPSIS":"545.806","ARG_OF_PERICENTER":"51.0635","CENTER_NAME":"EARTH","TLE_LINE2":"2 47763  53.0535 126.8835 0001999  51.0635 309.0531 15.06407702 99361","ELEMENT_SET_NO":"999","COUNTRY_CODE":"US","PERIOD":"95.592","MEAN_ANOMALY":"309.0531","MEAN_MOTION_DOT":"-0.00002022","RA_OF_ASC_NODE":"126.8835","SEMIMAJOR_AXIS":"6925.325","ECCENTRICITY":"0.00019990","REV_AT_EPOCH":"9936","EPHEMERIS_TYPE":"0","SITE":"AFETR","RCS_SIZE":"LARGE","OBJECT_ID":"2021-017AT","FILE":"3695286","NORAD_CAT_ID":"47763","OBJECT_NAME":"STARLINK-2181","LAUNCH_DATE":"2021-03-04","TLE_LINE1":"1 47763U 21017AT  22346.78473200 -.00002022  00000-0 -11685-3 0  9998","MEAN_ELEMENT_THEORY":"SGP4","DECAY_DATE":null,"CLASSIFICATION_TYPE":"U","GP_ID":"220207443","EPOCH":"2022-12-12T18:50:00.844800","OBJECT_TYPE":"PAYLOAD","APOAPSIS":"548.574"},{"MEAN_MOTION":"15.06402075","ARG_OF_PERICENTER":"76.2986","PERIAPSIS":"546.201","INCLINATION":"53.0539","CENTER_NAME":"EARTH","TLE_LINE2":"2 47764  53.0539 138.5131 0001453  76.2986 283.8165 15.06402075 99223","ELEMENT_SET_NO":"999","REF_FRAME":"TEME","BSTAR":"0.00005156600000","MEAN_MOTION_DDOT":"0.0000000000000","TIME_SYSTEM":"UTC","RA_OF_ASC_NODE":"138.5131","SEMIMAJOR_AXIS":"6925.342","ECCENTRICITY":"0.00014530","REV_AT_EPOCH":"9922","COUNTRY_CODE":"US","PERIOD":"95.592","MEAN_ANOMALY":"283.8165","MEAN_MOTION_DOT":"0.00000487","FILE":"3694071","NORAD_CAT_ID":"47764","OBJECT_NAME":"STARLINK-2182","LAUNCH_DATE":"2021-03-04","EPHEMERIS_TYPE":"0","SITE":"AFETR","RCS_SIZE":"LARGE","OBJECT_ID":"2021-017AU","CLASSIFICATION_TYPE":"U","GP_ID":"220167576","OBJECT_TYPE":"PAYLOAD","EPOCH":"2022-12-12T10:08:31.623072","APOAPSIS":"548.213","TLE_LINE1":"1 47764U 21017AU  22346.42258823  .00000487  00000-0  51566-4 0  9996","MEAN_ELEMENT_THEORY":"SGP4","DECAY_DATE":null},{"BSTAR":"0.00005558600000","REF_FRAME":"TEME","TIME_SYSTEM":"UTC","MEAN_MOTION_DDOT":"0.0000000000000","MEAN_MOTION":"15.06393025","INCLINATION":"53.0554","PERIAPSIS":"545.729","ARG_OF_PERICENTER":"50.3724","TLE_LINE2":"2 47766  53.0554 140.8141 0002174  50.3724 309.7456 15.06393025 99082","CENTER_NAME":"EARTH","ELEMENT_SET_NO":"999","COUNTRY_CODE":"US","MEAN_ANOMALY":"309.7456","PERIOD":"95.593","MEAN_MOTION_DOT":"0.00000546","RA_OF_ASC_NODE":"140.8141","SEMIMAJOR_AXIS":"6925.370","REV_AT_EPOCH":"9908","ECCENTRICITY":"0.00021740","EPHEMERIS_TYPE":"0","RCS_SIZE":"MEDIUM","SITE":"AFETR","OBJECT_ID":"2021-017AW","FILE":"3694071","NORAD_CAT_ID":"47766","OBJECT_NAME":"STARLINK-2184","LAUNCH_DATE":"2021-03-04","TLE_LINE1":"1 47766U 21017AW  22345.90930559  .00000546  00000-0  55586-4 0  9995","MEAN_ELEMENT_THEORY":"SGP4","DECAY_DATE":null,"GP_ID":"220166088","CLASSIFICATION_TYPE":"U","OBJECT_TYPE":"PAYLOAD","EPOCH":"2022-12-11T21:49:24.002976","APOAPSIS":"548.741"},{"GP_ID":"220167332","CLASSIFICATION_TYPE":"U","APOAPSIS":"548.225","EPOCH":"2022-12-12T12:47:06.201888","OBJECT_TYPE":"PAYLOAD","TLE_LINE1":"1 47767U 21017AX  22346.53271067 -.00000108  00000-0  11647-4 0  9993","DECAY_DATE":null,"MEAN_ELEMENT_THEORY":"SGP4","LAUNCH_DATE":"2021-03-04","OBJECT_NAME":"STARLINK-2185","FILE":"3694071","NORAD_CAT_ID":"47767","RCS_SIZE":"LARGE","SITE":"AFETR","EPHEMERIS_TYPE":"0","OBJECT_ID":"2021-017AX","RA_OF_ASC_NODE":"123.0255","REV_AT_EPOCH":"9945","ECCENTRICITY":"0.00014770","SEMIMAJOR_AXIS":"6925.337","COUNTRY_CODE":"US","MEAN_MOTION_DOT":"-0.00000108","MEAN_ANOMALY":"282.4397","PERIOD":"95.592","PERIAPSIS":"546.179","ARG_OF_PERICENTER":"77.6757","INCLINATION":"53.0563","MEAN_MOTION":"15.06403745","ELEMENT_SET_NO":"999","TLE_LINE2":"2 47767  53.0563 123.0255 0001477  77.6757 282.4397 15.06403745 99458","CENTER_NAME":"EARTH","BSTAR":"0.00001164700000","REF_FRAME":"TEME","TIME_SYSTEM":"UTC","MEAN_MOTION_DDOT":"0.0000000000000"},{"GP_ID":"220097091","CLASSIFICATION_TYPE":"U","APOAPSIS":"548.456","EPOCH":"2022-12-11T20:15:17.097696","OBJECT_TYPE":"PAYLOAD","TLE_LINE1":"1 47768U 21017AY  22345.84394789  .00000445  00000-0  48757-4 0  9999","DECAY_DATE":null,"MEAN_ELEMENT_THEORY":"SGP4","OBJECT_NAME":"STARLINK-2189","LAUNCH_DATE":"2021-03-04","NORAD_CAT_ID":"47768","FILE":"3691993","RCS_SIZE":"LARGE","SITE":"AFETR","EPHEMERIS_TYPE":"0","OBJECT_ID":"2021-017AY","RA_OF_ASC_NODE":"141.5103","REV_AT_EPOCH":"9910","ECCENTRICITY":"0.00017740","SEMIMAJOR_AXIS":"6925.362","COUNTRY_CODE":"US","MEAN_MOTION_DOT":"0.00000445","MEAN_ANOMALY":"293.5881","PERIOD":"95.592","PERIAPSIS":"545.999","INCLINATION":"53.0540","ARG_OF_PERICENTER":"66.5294","MEAN_MOTION":"15.06395544","ELEMENT_SET_NO":"999","TLE_LINE2":"2 47768  53.0540 141.5103 0001774  66.5294 293.5881 15.06395544 99104","CENTER_NAME":"EARTH","BSTAR":"0.00004875700000","REF_FRAME":"TEME","TIME_SYSTEM":"UTC","MEAN_MOTION_DDOT":"0.0000000000000"},{"RA_OF_ASC_NODE":"103.1009","ECCENTRICITY":"0.00019880","REV_AT_EPOCH":"9904","SEMIMAJOR_AXIS":"6925.352","COUNTRY_CODE":"US","MEAN_MOTION_DOT":"0.00001299","PERIOD":"95.592","MEAN_ANOMALY":"305.5053","PERIAPSIS":"545.840","ARG_OF_PERICENTER":"54.6121","INCLINATION":"53.0547","MEAN_MOTION":"15.06398964","ELEMENT_SET_NO":"999","CENTER_NAME":"EARTH","TLE_LINE2":"2 47769  53.0547 103.1009 0001988  54.6121 305.5053 15.06398964 99042","REF_FRAME":"TEME","BSTAR":"0.00010611000000","MEAN_MOTION_DDOT":"0.0000000000000","TIME_SYSTEM":"UTC","CLASSIFICATION_TYPE":"U","GP_ID":"220175799","APOAPSIS":"548.593","EPOCH":"2022-12-12T12:23:13.124832","OBJECT_TYPE":"PAYLOAD","TLE_LINE1":"1 47769U 21017AZ  22346.51612413  .00001299  00000-0  10611-3 0  9997","DECAY_DATE":null,"MEAN_ELEMENT_THEORY":"SGP4","LAUNCH_DATE":"2021-03-04","OBJECT_NAME":"STARLINK-2192","NORAD_CAT_ID":"47769","FILE":"3694342","SITE":"AFETR","RCS_SIZE":"LARGE","EPHEMERIS_TYPE":"0","OBJECT_ID":"2021-017AZ"},{"RA_OF_ASC_NODE":"116.8535","SEMIMAJOR_AXIS":"6925.331","ECCENTRICITY":"0.00016670","REV_AT_EPOCH":"9953","COUNTRY_CODE":"US","PERIOD":"95.592","MEAN_ANOMALY":"306.3414","MEAN_MOTION_DOT":"0.00007327","MEAN_MOTION":"15.06405671","PERIAPSIS":"546.042","ARG_OF_PERICENTER":"53.7728","INCLINATION":"53.0551","CENTER_NAME":"EARTH","TLE_LINE2":"2 47770  53.0551 116.8535 0001667  53.7728 306.3414 15.06405671 99539","ELEMENT_SET_NO":"999","REF_FRAME":"TEME","BSTAR":"0.00051017000000","MEAN_MOTION_DDOT":"0.0000000000000","TIME_SYSTEM":"UTC","CLASSIFICATION_TYPE":"U","GP_ID":"220207945","EPOCH":"2022-12-12T18:56:40.608960","OBJECT_TYPE":"PAYLOAD","APOAPSIS":"548.351","TLE_LINE1":"1 47770U 21017BA  22346.78935890  .00007327  00000-0  51017-3 0  9998","MEAN_ELEMENT_THEORY":"SGP4","DECAY_DATE":null,"NORAD_CAT_ID":"47770","FILE":"3695286","OBJECT_NAME":"STARLINK-2193","LAUNCH_DATE":"2021-03-04","EPHEMERIS_TYPE":"0","SITE":"AFETR","RCS_SIZE":"LARGE","OBJECT_ID":"2021-017BA"},{"FILE":"3695286","NORAD_CAT_ID":"47771","LAUNCH_DATE":"2021-03-04","OBJECT_NAME":"STARLINK-2194","OBJECT_ID":"2021-017BB","EPHEMERIS_TYPE":"0","RCS_SIZE":"LARGE","SITE":"AFETR","EPOCH":"2022-12-12T19:12:34.832160","OBJECT_TYPE":"PAYLOAD","APOAPSIS":"548.303","GP_ID":"220207194","CLASSIFICATION_TYPE":"U","MEAN_ELEMENT_THEORY":"SGP4","DECAY_DATE":null,"TLE_LINE1":"1 47771U 21017BB  22346.80040315  .00000253  00000-0  35892-4 0  9996","TLE_LINE2":"2 47771  53.0541 116.8199 0001544  54.9498 305.1635 15.06393509 99545","CENTER_NAME":"EARTH","ELEMENT_SET_NO":"999","MEAN_MOTION":"15.06393509","PERIAPSIS":"546.164","ARG_OF_PERICENTER":"54.9498","INCLINATION":"53.0541","TIME_SYSTEM":"UTC","MEAN_MOTION_DDOT":"0.0000000000000","BSTAR":"0.00003589200000","REF_FRAME":"TEME","SEMIMAJOR_AXIS":"6925.368","REV_AT_EPOCH":"9954","ECCENTRICITY":"0.00015440","RA_OF_ASC_NODE":"116.8199","MEAN_ANOMALY":"305.1635","PERIOD":"95.593","MEAN_MOTION_DOT":"0.00000253","COUNTRY_CODE":"US"},{"MEAN_ANOMALY":"290.4742","PERIOD":"95.592","MEAN_MOTION_DOT":"0.00001403","COUNTRY_CODE":"US","SEMIMAJOR_AXIS":"6925.346","REV_AT_EPOCH":"9924","ECCENTRICITY":"0.00012120","RA_OF_ASC_NODE":"133.6609","TIME_SYSTEM":"UTC","MEAN_MOTION_DDOT":"0.0000000000000","BSTAR":"0.00011305000000","REF_FRAME":"TEME","TLE_LINE2":"2 47772  53.0549 133.6609 0001212  69.6378 290.4742 15.06400847 99245","CENTER_NAME":"EARTH","ELEMENT_SET_NO":"999","MEAN_MOTION":"15.06400847","PERIAPSIS":"546.372","ARG_OF_PERICENTER":"69.6378","INCLINATION":"53.0549","MEAN_ELEMENT_THEORY":"SGP4","DECAY_DATE":null,"TLE_LINE1":"1 47772U 21017BC  22346.39172576  .00001403  00000-0  11305-3 0  9996","OBJECT_TYPE":"PAYLOAD","EPOCH":"2022-12-12T09:24:05.105664","APOAPSIS":"548.050","GP_ID":"220167577","CLASSIFICATION_TYPE":"U","OBJECT_ID":"2021-017BC","EPHEMERIS_TYPE":"0","RCS_SIZE":"LARGE","SITE":"AFETR","FILE":"3694071","NORAD_CAT_ID":"47772","LAUNCH_DATE":"2021-03-04","OBJECT_NAME":"STARLINK-2195"}];
